{
  "norad_id": 62797,
  "name": "QIANFAN-67",
  "history": [
    {
      "epoch": "2026-04-11T21:28:21.224640Z",
      "apogee_km": 1079.9142655297446,
      "perigee_km": 1057.1854878447202,
      "latitude_deg": -1.986459060724384e-05,
      "longitude_deg": -71.60686180257115,
      "height_km": 1060.2227324055164,
      "semi_major_axis_km": 7446.686876687232,
      "eccentricity": 0.0015261,
      "inclination_deg": 88.968,
      "raan_deg": 90.5892,
      "arg_perigee_deg": 7.1933,
      "mean_anomaly_deg": 352.9434,
      "mean_motion_rev_day": 13.51008629
    },
    {
      "epoch": "2026-04-13T05:28:03.476064Z",
      "apogee_km": 1079.812169498684,
      "perigee_km": 1057.2872825560617,
      "latitude_deg": 3.5960930586853976e-05,
      "longitude_deg": 167.01430023039148,
      "height_km": 1060.2568167494553,
      "semi_major_axis_km": 7446.686726027373,
      "eccentricity": 0.00151241,
      "inclination_deg": 88.9682,
      "raan_deg": 90.4504,
      "arg_perigee_deg": 3.4166,
      "mean_anomaly_deg": 356.7086,
      "mean_motion_rev_day": 13.5100867
    },
    {
      "epoch": "2026-04-14T20:34:21.773280Z",
      "apogee_km": 1079.6845616421697,
      "perigee_km": 1057.4145009017475,
      "latitude_deg": 5.0896380220894864e-05,
      "longitude_deg": -61.33752482839306,
      "height_km": 1060.3683702264348,
      "semi_major_axis_km": 7446.686531271958,
      "eccentricity": 0.0014953,
      "inclination_deg": 88.9684,
      "raan_deg": 90.2808,
      "arg_perigee_deg": 358.7946,
      "mean_anomaly_deg": 1.3167,
      "mean_motion_rev_day": 13.51008723
    },
    {
      "epoch": "2026-04-15T21:27:27.961632Z",
      "apogee_km": 1079.6047091322598,
      "perigee_km": 1057.4940079964108,
      "latitude_deg": -3.476887053295899e-05,
      "longitude_deg": -75.74320194129882,
      "height_km": 1060.4760727450696,
      "semi_major_axis_km": 7446.686358564335,
      "eccentricity": 0.0014846,
      "inclination_deg": 88.9685,
      "raan_deg": 90.1729,
      "arg_perigee_deg": 355.8093,
      "mean_anomaly_deg": 4.2931,
      "mean_motion_rev_day": 13.5100877
    },
    {
      "epoch": "2026-04-16T18:47:16.123200Z",
      "apogee_km": 1079.5346109191141,
      "perigee_km": 1057.5639077795295,
      "latitude_deg": 1.4093452155064182e-05,
      "longitude_deg": -36.66236639010694,
      "height_km": 1060.5935818847215,
      "semi_major_axis_km": 7446.6862593493215,
      "eccentricity": 0.0014752,
      "inclination_deg": 88.9686,
      "raan_deg": 90.0804,
      "arg_perigee_deg": 353.2425,
      "mean_anomaly_deg": 6.8525,
      "mean_motion_rev_day": 13.51008797
    },
    {
      "epoch": "2026-04-17T21:27:01.330560Z",
      "apogee_km": 1079.4505129378576,
      "perigee_km": 1057.6478073307699,
      "latitude_deg": 2.5700368764100045e-06,
      "longitude_deg": -77.81132148325634,
      "height_km": 1060.767342737704,
      "semi_major_axis_km": 7446.6861601343135,
      "eccentricity": 0.00146392,
      "inclination_deg": 88.9687,
      "raan_deg": 89.9648,
      "arg_perigee_deg": 350.0127,
      "mean_anomaly_deg": 10.0731,
      "mean_motion_rev_day": 13.51008824
    },
    {
      "epoch": "2026-04-18T18:46:49.497312Z",
      "apogee_km": 1079.379705125023,
      "perigee_km": 1057.7187841765826,
      "latitude_deg": -7.2151695390349e-05,
      "longitude_deg": -38.730511380135106,
      "height_km": 1060.9342946547838,
      "semi_major_axis_km": 7446.686244650802,
      "eccentricity": 0.0014544,
      "inclination_deg": 88.9688,
      "raan_deg": 89.8723,
      "arg_perigee_deg": 347.4091,
      "mean_anomaly_deg": 12.6694,
      "mean_motion_rev_day": 13.51008801
    },
    {
      "epoch": "2026-04-19T19:39:55.696032Z",
      "apogee_km": 1079.2975781401683,
      "perigee_km": 1057.80048490437,
      "latitude_deg": -1.9027639262025957e-05,
      "longitude_deg": -53.13623236316751,
      "height_km": 1061.1543351337532,
      "semi_major_axis_km": 7446.686031522268,
      "eccentricity": 0.0014434,
      "inclination_deg": 88.9689,
      "raan_deg": 89.7644,
      "arg_perigee_deg": 344.3582,
      "mean_anomaly_deg": 15.7121,
      "mean_motion_rev_day": 13.51008859
    },
    {
      "epoch": "2026-04-20T13:26:25.836000Z",
      "apogee_km": 1079.2406614370448,
      "perigee_km": 1057.8570561923061,
      "latitude_deg": -1.4074485694775696e-05,
      "longitude_deg": 39.431088152427385,
      "height_km": 1061.327540725306,
      "semi_major_axis_km": 7446.685858814675,
      "eccentricity": 0.00143578,
      "inclination_deg": 88.969,
      "raan_deg": 89.6873,
      "arg_perigee_deg": 342.1581,
      "mean_anomaly_deg": 17.9064,
      "mean_motion_rev_day": 13.51008906
    },
    {
      "epoch": "2026-04-21T21:26:08.092608Z",
      "apogee_km": 1079.136225581884,
      "perigee_km": 1057.9608306141845,
      "latitude_deg": -1.0861076757548075e-05,
      "longitude_deg": -81.94767518840821,
      "height_km": 1061.6756455947175,
      "semi_major_axis_km": 7446.685528098034,
      "eccentricity": 0.0014218,
      "inclination_deg": 88.9691,
      "raan_deg": 89.5486,
      "arg_perigee_deg": 338.1909,
      "mean_anomaly_deg": 21.8635,
      "mean_motion_rev_day": 13.51008996
    }
  ]
}